OBJECT_NAME,OBJECT_ID,EPOCH,MEAN_MOTION,ECCENTRICITY,INCLINATION,RA_OF_ASC_NODE,ARG_OF_PERICENTER,MEAN_ANOMALY,EPHEMERIS_TYPE,CLASSIFICATION_TYPE,NORAD_CAT_ID,ELEMENT_SET_NO,REV_AT_EPOCH,BSTAR,MEAN_MOTION_DOT,MEAN_MOTION_DDOT
LEMUR-2-ROUNDTRIPPER,2025-009DG,2026-06-27T04:58:38.299872,15.03949624,.0005501,97.7248,260.8730,107.0662,253.1166,0,U,62711,999,7913,.69119E-3,.9485E-4,0
LEMUR-2-MYNAMEISJEFF,2025-009DH,2026-06-27T04:56:19.718592,15.03945393,.0003989,97.7291,261.2583,132.7796,227.3766,0,U,62712,999,7913,.61444E-3,.8421E-4,0
LEMUR-2-LEIA-PHILIP,2025-052AN,2026-06-27T03:51:16.792992,14.97338185,.0003752,97.6819,69.9433,176.2961,183.8290,0,U,63246,999,7016,.1244E-3,.1386E-4,0
LEMUR-2-LIA-MARTIN,2025-052AQ,2026-06-26T23:05:06.986688,14.97873379,.0003852,97.6876,70.2373,139.4162,220.7348,0,U,63248,999,7014,.42609E-3,.4958E-4,0
LEMUR-2-DELOITTE-1,2025-052BB,2026-06-27T04:57:47.558880,14.97673287,.0003112,97.6924,70.8095,76.1211,284.0358,0,U,63259,999,7019,.29901E-3,.3443E-4,0
LEMUR-2-EMERSONROSE,2025-052BD,2026-06-27T04:07:53.499072,14.99148416,.0002097,97.6878,71.3510,78.4064,281.7394,0,U,63261,999,7023,.37308E-3,.448E-4,0
LEMUR-2-MARACHE-FRAN,2025-052BE,2026-06-27T04:58:31.286784,15.00186912,.0004517,97.6922,71.7246,341.0693,19.0362,0,U,63262,999,7026,.40315E-3,.498E-4,0
LEMUR-2-THEFALCONER,2025-052BG,2026-06-26T23:13:02.085600,14.97445247,.0001518,97.6850,70.1820,16.8199,343.3073,0,U,63264,999,7015,.3494E-3,.401E-4,0
LEMUR-2-UNTITLED-SC,2025-061A,2026-06-27T04:53:53.795040,15.13539995,.0017383,97.5637,153.4931,226.7144,133.2638,0,U,63351,999,6910,.22909E-3,.4053E-4,0
LEMUR-2-ESPERANZA,2025-061B,2026-06-26T21:59:18.777984,15.13628579,.0016964,97.5641,153.3028,226.9985,132.9825,0,U,63352,999,6906,.19435E-3,.3436E-4,0
LEMUR-2-KREMPEL-BRO2,2025-061C,2026-06-27T04:54:47.323296,15.14070098,.0018083,97.5689,154.1356,218.0380,141.9575,0,U,63353,999,6912,.22741E-3,.4085E-4,0
LEMUR-2-THERMORAPTOR,2025-061D,2026-06-27T04:28:12.203040,15.14150531,.0017812,97.5694,154.1948,216.7708,143.2303,0,U,63354,999,6912,.19616E-3,.3522E-4,0
LEMUR-2-NEUROSPICY,2025-061E,2026-06-26T21:25:41.426976,15.14263449,.001557,97.5620,153.5214,221.3544,138.6510,0,U,63355,999,6908,.22667E-3,.409E-4,0
LEMUR-2-TILLINFINITY,2025-061F,2026-06-26T22:11:04.779168,15.14850004,.0017097,97.5605,153.8503,208.5865,151.4431,0,U,63356,999,6911,.2062E-3,.3779E-4,0
LEMUR-2-KREMPEL-BRO1,2025-061G,2026-06-26T21:34:40.550016,15.14655024,.0017711,97.5607,153.7385,210.3856,149.6351,0,U,63357,999,6910,.2199E-3,.4013E-4,0
LEMUR-2-LANGER2SPACE,2025-061H,2026-06-27T04:36:14.404896,15.14353771,.0015496,97.5612,153.8396,218.1826,141.8309,0,U,63358,999,6913,.20502E-3,.3702E-4,0
LEMUR-2-BALTO,2025-052BH,2026-06-27T04:36:31.500000,15.00194391,.0006554,97.6925,71.6849,31.1961,328.9651,0,U,63395,999,7026,.51211E-3,.6346E-4,0
LEMUR-2-KRISH,2025-135AK,2026-06-27T00:55:50.740608,14.96289471,.0001093,97.7747,292.8475,102.9634,257.1709,0,U,64561,999,5539,.46426E-3,.5189E-4,0
LEMUR-2-HUBBLE-4,2025-135AP,2026-06-27T04:30:10.533024,14.93560949,.0001167,97.7703,291.9738,223.9826,136.1301,0,U,64565,999,5536,.17154E-3,.1752E-4,0
LEMUR-2-SEJONG-2,2025-135BL,2026-06-27T03:10:42.286368,14.96774591,.000279,97.7695,293.0847,299.9448,60.1496,0,U,64586,999,5543,.48931E-3,.5542E-4,0
LEMUR-2-HUBBLE-5,2025-135BT,2026-06-27T03:15:37.937664,14.94165341,.0004279,97.7726,292.5718,315.7815,44.3062,0,U,64840,999,5539,.18752E-3,.195E-4,0
LEMUR-2-KARENDARRELL,2025-135BU,2026-06-27T02:57:30.070080,15.00252582,.0010557,97.7685,294.3144,164.8413,195.3129,0,U,64841,999,5550,.72327E-3,.901E-4,0
LEMUR-2-LUCILLE-ROSE,2025-135BV,2026-06-27T05:31:23.443680,15.00274508,.0012374,97.7747,294.4512,246.3763,113.6161,0,U,65403,999,5014,.59807E-3,.7445E-4,0
LEMUR-2-AFFIE-WAUWIE,2025-248C,2026-06-26T16:05:37.034592,15.27531092,.00077086,45.3937,63.5971,149.2516,210.8826,0,U,66295,999,3604,.84292418E-3,.22909E-3,0
LEMUR-2-DEANANDMAEVE,2025-276N,2026-06-27T04:34:43.558752,15.19850842,.000476,97.4216,251.5005,337.6865,22.4162,0,U,66678,999,3193,.32012E-3,.68E-4,0
LEMUR-2-STAS-GORBUK,2025-276W,2026-06-27T04:59:01.252896,15.19482151,.0004047,97.4250,251.5712,337.8562,22.2497,0,U,66686,999,3193,.30043E-3,.6309E-4,0
LEMUR-2-TEODOR,2025-276DG,2026-06-27T04:19:50.568096,15.21154686,.0002372,97.4156,251.7934,106.8130,253.3366,0,U,66768,999,3196,.27511E-3,.606E-4,0
LEMUR-2-LAILA,2025-276DQ,2026-06-27T03:40:11.091360,15.21377528,.0002672,97.4179,251.8933,121.3399,238.8099,0,U,66776,999,3196,.30265E-3,.6718E-4,0
LEMUR-2-CELIJO-SB-PK,2025-276DW,2026-06-27T04:13:30.686304,15.00092781,.0008116,97.5232,248.6253,108.4923,251.7184,0,U,66781,999,2412,.54448E-3,.6737E-4,0
LEMUR-2-FINNIAN,2025-276DX,2026-06-27T00:24:30.686112,15.00465687,.0008584,97.5321,248.6986,60.9058,299.3024,0,U,66782,999,2147,.34317E-3,.4265E-4,0
